start=new Date('2021-08-28T00:00:00.000Z').valueOf();
sats=[{"ECCENTRICITY":"0.00017330","DECAY_DATE":null,"MEAN_MOTION_DDOT":"0.0000000000000","LAUNCH_DATE":"2021-03-24","FILE":"3103885","RCS_SIZE":"LARGE","EPHEMERIS_TYPE":"0","PERIAPSIS":"546.036","CENTER_NAME":"EARTH","TLE_LINE2":"2 48019  53.0565 182.6557 0001733  66.4516 293.6655 15.06392552 25353","BSTAR":"-0.00003740200000","CLASSIFICATION_TYPE":"U","OBJECT_NAME":"STARLINK-2285","REV_AT_EPOCH":"2535","NORAD_CAT_ID":"48019","MEAN_MOTION":"15.06392552","APOAPSIS":"548.437","INCLINATION":"53.0565","EPOCH":"2021-08-27T08:41:21.592608","MEAN_ELEMENT_THEORY":"SGP4","TIME_SYSTEM":"UTC","OBJECT_ID":"2021-024AU","GP_ID":"183530154","TLE_LINE1":"1 48019U 21024AU  21239.36205547 -.00000839  00000-0 -37402-4 0  9992","OBJECT_TYPE":"PAYLOAD","SITE":"AFETR","COUNTRY_CODE":"US","MEAN_MOTION_DOT":"-0.00000839","RA_OF_ASC_NODE":"182.6557","REF_FRAME":"TEME","MEAN_ANOMALY":"293.6655","ELEMENT_SET_NO":"999","PERIOD":"95.593","SEMIMAJOR_AXIS":"6925.371","ARG_OF_PERICENTER":"66.4516"},{"OBJECT_NAME":"STARLINK-2294","CLASSIFICATION_TYPE":"U","REV_AT_EPOCH":"2578","NORAD_CAT_ID":"48020","MEAN_MOTION":"15.73192625","DECAY_DATE":null,"MEAN_MOTION_DDOT":"0.0000000000000","ECCENTRICITY":"0.00041000","CENTER_NAME":"EARTH","FILE":"3103885","RCS_SIZE":"LARGE","PERIAPSIS":"347.023","EPHEMERIS_TYPE":"0","TLE_LINE2":"2 48020  53.0457 150.2806 0004100  10.0111 350.0988 15.73192625 25787","BSTAR":"-0.00006455800000","LAUNCH_DATE":"2021-03-24","MEAN_MOTION_DOT":"-0.00009679","RA_OF_ASC_NODE":"150.2806","REF_FRAME":"TEME","PERIOD":"91.534","ARG_OF_PERICENTER":"10.0111","SEMIMAJOR_AXIS":"6727.916","ELEMENT_SET_NO":"999","MEAN_ANOMALY":"350.0988","MEAN_ELEMENT_THEORY":"SGP4","OBJECT_ID":"2021-024AV","TIME_SYSTEM":"UTC","GP_ID":"183530404","TLE_LINE1":"1 48020U 21024AV  21239.13005447 -.00009679  00000-0 -64558-4 0  9999","APOAPSIS":"352.540","INCLINATION":"53.0457","EPOCH":"2021-08-27T03:07:16.706208","COUNTRY_CODE":"US","OBJECT_TYPE":"PAYLOAD","SITE":"AFETR"},{"APOAPSIS":"352.612","INCLINATION":"53.0457","EPOCH":"2021-08-27T03:07:06.217248","MEAN_ELEMENT_THEORY":"SGP4","TIME_SYSTEM":"UTC","OBJECT_ID":"2021-024AW","GP_ID":"183530655","TLE_LINE1":"1 48021U 21024AW  21239.12993307 -.00005471  00000-0 -34495-4 0  9993","OBJECT_TYPE":"PAYLOAD","SITE":"AFETR","COUNTRY_CODE":"US","MEAN_MOTION_DOT":"-0.00005471","RA_OF_ASC_NODE":"150.2769","REF_FRAME":"TEME","MEAN_ANOMALY":"359.1988","ELEMENT_SET_NO":"999","PERIOD":"91.532","SEMIMAJOR_AXIS":"6727.853","ARG_OF_PERICENTER":"0.9037","ECCENTRICITY":"0.00043010","DECAY_DATE":null,"MEAN_MOTION_DDOT":"0.0000000000000","LAUNCH_DATE":"2021-03-24","RCS_SIZE":"LARGE","FILE":"3103885","PERIAPSIS":"346.825","EPHEMERIS_TYPE":"0","CENTER_NAME":"EARTH","TLE_LINE2":"2 48021  53.0457 150.2769 0004301   0.9037 359.1988 15.73214714 25799","BSTAR":"-0.00003449500000","CLASSIFICATION_TYPE":"U","OBJECT_NAME":"STARLINK-2301","REV_AT_EPOCH":"2579","NORAD_CAT_ID":"48021","MEAN_MOTION":"15.73214714"},{"ECCENTRICITY":"0.00011240","DECAY_DATE":null,"MEAN_MOTION_DDOT":"0.0000000000000","LAUNCH_DATE":"2021-03-24","FILE":"3103885","RCS_SIZE":"LARGE","CENTER_NAME":"EARTH","PERIAPSIS":"546.416","EPHEMERIS_TYPE":"0","TLE_LINE2":"2 48022  53.0556 202.4198 0001124  49.9869 310.1218 15.06406393 25146","BSTAR":"0.00005621600000","CLASSIFICATION_TYPE":"U","OBJECT_NAME":"STARLINK-2298","REV_AT_EPOCH":"2514","NORAD_CAT_ID":"48022","MEAN_MOTION":"15.06406393","INCLINATION":"53.0556","APOAPSIS":"547.972","EPOCH":"2021-08-27T10:02:16.577952","MEAN_ELEMENT_THEORY":"SGP4","OBJECT_ID":"2021-024AX","TIME_SYSTEM":"UTC","GP_ID":"183531379","TLE_LINE1":"1 48022U 21024AX  21239.41824743  .00000556  00000-0  56216-4 0  9995","OBJECT_TYPE":"PAYLOAD","SITE":"AFETR","COUNTRY_CODE":"US","MEAN_MOTION_DOT":"0.00000556","RA_OF_ASC_NODE":"202.4198","REF_FRAME":"TEME","MEAN_ANOMALY":"310.1218","ELEMENT_SET_NO":"999","PERIOD":"95.592","SEMIMAJOR_AXIS":"6925.329","ARG_OF_PERICENTER":"49.9869"},{"SITE":"AFETR","OBJECT_TYPE":"PAYLOAD","COUNTRY_CODE":"US","EPOCH":"2021-08-27T08:49:19.262784","APOAPSIS":"548.025","INCLINATION":"53.0543","OBJECT_ID":"2021-024AY","TIME_SYSTEM":"UTC","MEAN_ELEMENT_THEORY":"SGP4","TLE_LINE1":"1 48023U 21024AY  21239.36758406  .00000668  00000-0  63710-4 0  9993","GP_ID":"183529655","ELEMENT_SET_NO":"999","MEAN_ANOMALY":"300.2021","ARG_OF_PERICENTER":"59.9081","SEMIMAJOR_AXIS":"6925.369","PERIOD":"95.593","RA_OF_ASC_NODE":"202.6359","REF_FRAME":"TEME","MEAN_MOTION_DOT":"0.00000668","LAUNCH_DATE":"2021-03-24","FILE":"3103885","RCS_SIZE":"LARGE","PERIAPSIS":"546.442","EPHEMERIS_TYPE":"0","CENTER_NAME":"EARTH","BSTAR":"0.00006371000000","TLE_LINE2":"2 48023  53.0543 202.6359 0001143  59.9081 300.2021 15.06393489 25134","ECCENTRICITY":"0.00011430","DECAY_DATE":null,"MEAN_MOTION_DDOT":"0.0000000000000","REV_AT_EPOCH":"2513","MEAN_MOTION":"15.06393489","NORAD_CAT_ID":"48023","CLASSIFICATION_TYPE":"U","OBJECT_NAME":"STARLINK-2292"},{"TLE_LINE1":"1 48024U 21024AZ  21239.12960289  .00002465  00000-0  22020-4 0  9998","GP_ID":"183529905","TIME_SYSTEM":"UTC","OBJECT_ID":"2021-024AZ","MEAN_ELEMENT_THEORY":"SGP4","EPOCH":"2021-08-27T03:06:37.689696","APOAPSIS":"352.403","INCLINATION":"53.0460","COUNTRY_CODE":"US","SITE":"AFETR","OBJECT_TYPE":"PAYLOAD","RA_OF_ASC_NODE":"150.2802","REF_FRAME":"TEME","MEAN_MOTION_DOT":"0.00002465","SEMIMAJOR_AXIS":"6727.974","ARG_OF_PERICENTER":"1.5623","PERIOD":"91.535","MEAN_ANOMALY":"358.5406","ELEMENT_SET_NO":"999","MEAN_MOTION_DDOT":"0.0000000000000","DECAY_DATE":null,"ECCENTRICITY":"0.00038120","BSTAR":"0.00002202000000","TLE_LINE2":"2 48024  53.0460 150.2802 0003812   1.5623 358.5406 15.73172455 25791","RCS_SIZE":"LARGE","FILE":"3103885","EPHEMERIS_TYPE":"0","PERIAPSIS":"347.274","CENTER_NAME":"EARTH","LAUNCH_DATE":"2021-03-24","OBJECT_NAME":"STARLINK-2302","CLASSIFICATION_TYPE":"U","MEAN_MOTION":"15.73172455","NORAD_CAT_ID":"48024","REV_AT_EPOCH":"2579"},{"REV_AT_EPOCH":"2579","NORAD_CAT_ID":"48025","MEAN_MOTION":"15.73195881","CLASSIFICATION_TYPE":"U","OBJECT_NAME":"STARLINK-2318","LAUNCH_DATE":"2021-03-24","RCS_SIZE":"LARGE","FILE":"3103885","PERIAPSIS":"347.005","CENTER_NAME":"EARTH","EPHEMERIS_TYPE":"0","TLE_LINE2":"2 48025  53.0462 149.9601 0004113  10.9428 349.1678 15.73195881 25793","BSTAR":"-0.00003113800000","ECCENTRICITY":"0.00041130","DECAY_DATE":null,"MEAN_MOTION_DDOT":"0.0000000000000","ELEMENT_SET_NO":"999","MEAN_ANOMALY":"349.1678","PERIOD":"91.533","SEMIMAJOR_AXIS":"6727.907","ARG_OF_PERICENTER":"10.9428","MEAN_MOTION_DOT":"-0.00004995","RA_OF_ASC_NODE":"149.9601","REF_FRAME":"TEME","OBJECT_TYPE":"PAYLOAD","SITE":"AFETR","COUNTRY_CODE":"US","APOAPSIS":"352.539","INCLINATION":"53.0462","EPOCH":"2021-08-27T04:37:58.135008","MEAN_ELEMENT_THEORY":"SGP4","OBJECT_ID":"2021-024BA","TIME_SYSTEM":"UTC","GP_ID":"183531155","TLE_LINE1":"1 48025U 21024BA  21239.19303397 -.00004995  00000-0 -31138-4 0  9999"},{"MEAN_MOTION_DOT":"-0.00000728","RA_OF_ASC_NODE":"208.4209","REF_FRAME":"TEME","ELEMENT_SET_NO":"999","MEAN_ANOMALY":"312.1414","PERIOD":"95.696","SEMIMAJOR_AXIS":"6930.347","ARG_OF_PERICENTER":"47.9683","APOAPSIS":"553.099","INCLINATION":"53.0511","EPOCH":"2021-08-27T04:23:29.582592","GP_ID":"183530880","TLE_LINE1":"1 48026U 21024BB  21239.18298128 -.00000728  00000-0 -31644-4 0  9996","MEAN_ELEMENT_THEORY":"SGP4","TIME_SYSTEM":"UTC","OBJECT_ID":"2021-024BB","OBJECT_TYPE":"PAYLOAD","SITE":"AFETR","COUNTRY_CODE":"US","CLASSIFICATION_TYPE":"U","OBJECT_NAME":"STARLINK-2278","NORAD_CAT_ID":"48026","MEAN_MOTION":"15.04770573","REV_AT_EPOCH":"2498","ECCENTRICITY":"0.00012800","MEAN_MOTION_DDOT":"0.0000000000000","DECAY_DATE":null,"LAUNCH_DATE":"2021-03-24","TLE_LINE2":"2 48026  53.0511 208.4209 0001280  47.9683 312.1414 15.04770573 24988","BSTAR":"-0.00003164400000","FILE":"3103885","PERIAPSIS":"551.325","RCS_SIZE":"LARGE","CENTER_NAME":"EARTH","EPHEMERIS_TYPE":"0"},{"NORAD_CAT_ID":"48027","MEAN_MOTION":"15.04507018","REV_AT_EPOCH":"2533","CLASSIFICATION_TYPE":"U","OBJECT_NAME":"STARLINK-2300","LAUNCH_DATE":"2021-03-24","TLE_LINE2":"2 48027  53.0548 183.2060 0001371  55.1192 304.9925 15.04507018 25339","BSTAR":"0.00493960000000","FILE":"3103885","PERIAPSIS":"552.071","RCS_SIZE":"LARGE","CENTER_NAME":"EARTH","EPHEMERIS_TYPE":"0","ECCENTRICITY":"0.00013710","MEAN_MOTION_DDOT":"0.0000000000000","DECAY_DATE":null,"MEAN_ANOMALY":"304.9925","ELEMENT_SET_NO":"999","PERIOD":"95.712","ARG_OF_PERICENTER":"55.1192","SEMIMAJOR_AXIS":"6931.156","MEAN_MOTION_DOT":"0.00070351","RA_OF_ASC_NODE":"183.2060","REF_FRAME":"TEME","OBJECT_TYPE":"PAYLOAD","SITE":"AFETR","COUNTRY_CODE":"US","INCLINATION":"53.0548","APOAPSIS":"553.972","EPOCH":"2021-08-27T05:45:09.504576","GP_ID":"183530155","TLE_LINE1":"1 48027U 21024BC  21239.23969334  .00070351  00000-0  49396-2 0  9995","MEAN_ELEMENT_THEORY":"SGP4","OBJECT_ID":"2021-024BC","TIME_SYSTEM":"UTC"},{"LAUNCH_DATE":"2021-03-24","RCS_SIZE":"LARGE","FILE":"3103885","PERIAPSIS":"346.601","CENTER_NAME":"EARTH","EPHEMERIS_TYPE":"0","TLE_LINE2":"2 48028  53.0461 149.6396 0004595  14.7028 345.4123 15.73223793 25861","BSTAR":"0.00000191380000","ECCENTRICITY":"0.00045950","DECAY_DATE":null,"MEAN_MOTION_DDOT":"0.0000000000000","REV_AT_EPOCH":"2586","NORAD_CAT_ID":"48028","MEAN_MOTION":"15.73223793","CLASSIFICATION_TYPE":"U","OBJECT_NAME":"STARLINK-2264","OBJECT_TYPE":"PAYLOAD","SITE":"AFETR","COUNTRY_CODE":"US","INCLINATION":"53.0461","APOAPSIS":"352.784","EPOCH":"2021-08-27T06:08:56.672736","MEAN_ELEMENT_THEORY":"SGP4","TIME_SYSTEM":"UTC","OBJECT_ID":"2021-024BD","GP_ID":"183530405","TLE_LINE1":"1 48028U 21024BD  21239.25621149 -.00000358  00000-0  19138-5 0  9992","ELEMENT_SET_NO":"999","MEAN_ANOMALY":"345.4123","PERIOD":"91.532","ARG_OF_PERICENTER":"14.7028","SEMIMAJOR_AXIS":"6727.827","MEAN_MOTION_DOT":"-0.00000358","RA_OF_ASC_NODE":"149.6396","REF_FRAME":"TEME"}];
